NORAD_CAT_ID,OBJECT_NAME,OBJECT_TYPE,EPOCH,MEAN_MOTION,ECCENTRICITY,INCLINATION,RA_OF_ASC_NODE,ARG_OF_PERICENTER,MEAN_ANOMALY,BSTAR,MEAN_MOTION_DOT,MEAN_MOTION_DDOT,TLE_LINE0,TLE_LINE1,TLE_LINE2,SEMIMAJOR_AXIS,PERIOD,APOGEE,PERIGEE,DECAYED
53796.0,STARLINK-4721,PAYLOAD,2023-02-28 13:34:39,15.08851996,0.0001455,53.22,174.8749,113.843,246.2714,-3.6608e-05,-8.71e-06,0.0,0 STARLINK-4721,1 53796U 22111Z   23059.56573701 -.00000871  00000-0 -36608-4 0  9995,2 53796  53.2200 174.8749 0001455 113.8430 246.2714 15.08851996 27163,6917.844,95.437,540.715,538.702,0.0
53796.0,STARLINK-4721,PAYLOAD,2023-02-28 15:10:02,15.08859031,7.27e-05,53.2191,174.5771,73.3725,286.7347,-1.3885e-05,-5.09e-06,0.0,0 STARLINK-4721,1 53796U 22111Z   23059.63197180 -.00000509  00000-0 -13885-4 0  9996,2 53796  53.2191 174.5771 0000727  73.3725 286.7347 15.08859031 26429,6917.822,95.436,540.19,539.184,0.0
53796.0,STARLINK-4721,PAYLOAD,2023-02-28 16:45:25,15.08860748,7.4e-05,53.2188,174.2794,68.3773,291.7298,-2.2071e-06,-3.23e-06,0.0,0 STARLINK-4721,1 53796U 22111Z   23059.69820965 -.00000323  00000-0 -22071-5 0  9998,2 53796  53.2188 174.2794 0000740  68.3773 291.7298 15.08860748 27181,6917.817,95.436,540.194,539.17,0.0
53796.0,STARLINK-4721,PAYLOAD,2023-03-01 00:42:22,15.08837074,0.0001336,53.2193,172.7929,67.2237,292.8896,-0.00011888,-2.179e-05,0.0,0 STARLINK-4721,1 53796U 22111Z   23060.02942942 -.00002179  00000-0 -11888-3 0  9990,2 53796  53.2193 172.7929 0001336  67.2237 292.8896 15.08837074 26489,6917.889,95.438,540.679,538.83,0.0
53796.0,STARLINK-4721,PAYLOAD,2023-03-01 10:14:43,15.0880934,0.0001435,53.2181,171.0095,75.0725,285.0426,-0.00010764,-1.999e-05,0.0,0 STARLINK-4721,1 53796U 22111Z   23060.42689067 -.00001999  00000-0 -10764-3 0  9991,2 53796  53.2181 171.0095 0001435  75.0725 285.0426 15.08809340 26546,6917.974,95.439,540.832,538.846,0.0
53796.0,STARLINK-4721,PAYLOAD,2023-03-01 13:25:29,15.08820636,0.00014,53.2181,170.4141,82.6689,277.4462,-0.00016791,-2.958e-05,0.0,0 STARLINK-4721,1 53796U 22111Z   23060.55936723 -.00002958  00000-0 -16791-3 0  9991,2 53796  53.2181 170.4141 0001400  82.6689 277.4462 15.08820636 26564,6917.94,95.439,540.773,538.836,0.0
53796.0,STARLINK-4721,PAYLOAD,2023-03-02 13:16:14,15.08846533,0.0001247,53.2177,165.9528,85.9861,274.1273,3.819e-05,3.2e-06,0.0,0 STARLINK-4721,1 53796U 22111Z   23061.55294979  .00000320  00000-0  38190-4 0  9999,2 53796  53.2177 165.9528 0001247  85.9861 274.1273 15.08846533 27462,6917.86,95.437,540.588,538.863,0.0
53796.0,STARLINK-4721,PAYLOAD,2023-03-03 06:45:29,15.08834229,0.0001643,53.2173,162.6828,78.8697,281.248,0.00028809,4.299e-05,0.0,0 STARLINK-4721,1 53796U 22111Z   23062.28159205  .00004299  00000-0  28809-3 0  9996,2 53796  53.2173 162.6828 0001643  78.8697 281.2480 15.08834229 26820,6917.898,95.438,540.9,538.626,0.0
53796.0,STARLINK-4721,PAYLOAD,2023-03-03 11:31:38,15.08841324,0.0001837,53.217,161.7937,66.8279,293.2907,0.00028135,4.193e-05,0.0,0 STARLINK-4721,1 53796U 22111Z   23062.48030863  .00004193  00000-0  28135-3 0  9991,2 53796  53.2170 161.7937 0001837  66.8279 293.2907 15.08841324 27604,6917.876,95.437,541.012,538.471,0.0
53796.0,STARLINK-4721,PAYLOAD,2023-03-04 11:22:26,15.0883985,0.0001395,53.2186,157.3313,103.3092,256.8055,6.3085e-06,-1.88e-06,0.0,0 STARLINK-4721,1 53796U 22111Z   23063.47391416 -.00000188  00000-0  63085-5 0  9991,2 53796  53.2186 157.3313 0001395 103.3092 256.8055 15.08839850 27755,6917.881,95.438,540.711,538.781,0.0
53796.0,STARLINK-4721,PAYLOAD,2023-03-04 14:33:12,15.08847002,0.0001563,53.2181,156.7338,112.4984,247.6173,-6.8498e-05,-1.378e-05,0.0,0 STARLINK-4721,1 53796U 22111Z   23063.60639287 -.00001378  00000-0 -68498-4 0  9992,2 53796  53.2181 156.7338 0001563 112.4984 247.6173 15.08847002 27025,6917.859,95.437,540.805,538.643,0.0
53796.0,STARLINK-4721,PAYLOAD,2023-03-04 16:08:35,15.08842082,0.00013,53.2183,156.4384,113.7208,246.3921,1.6203e-05,-3e-07,0.0,0 STARLINK-4721,1 53796U 22111Z   23063.67263359 -.00000030  00000-0  16203-4 0  9992,2 53796  53.2183 156.4384 0001300 113.7208 246.3921 15.08842082 27780,6917.874,95.437,540.638,538.84,0.0
53796.0,STARLINK-4721,PAYLOAD,2023-03-05 09:37:50,15.08843285,0.0001676,53.2187,153.1666,121.8618,238.2538,-0.00014106,-2.533e-05,0.0,0 STARLINK-4721,1 53796U 22111Z   23064.40127744 -.00002533  00000-0 -14106-3 0  9991,2 53796  53.2187 153.1666 0001676 121.8618 238.2538 15.08843285 27142,6917.87,95.437,540.895,538.576,0.0
53796.0,STARLINK-4721,PAYLOAD,2023-03-06 06:17:50,15.08846197,0.0001196,53.2182,149.2998,116.246,243.8655,0.00011656,1.568e-05,0.0,0 STARLINK-4721,1 53796U 22111Z   23065.26238693  .00001568  00000-0  11656-3 0  9994,2 53796  53.2182 149.2998 0001196 116.2460 243.8655 15.08846197 27272,6917.861,95.437,540.554,538.899,0.0
53796.0,STARLINK-4721,PAYLOAD,2023-03-06 15:50:07,15.08864319,0.0001059,53.2181,147.5188,116.5953,243.5148,0.00014153,1.967e-05,0.0,0 STARLINK-4721,1 53796U 22111Z   23065.65981290  .00001967  00000-0  14153-3 0  9993,2 53796  53.2181 147.5188 0001059 116.5953 243.5148 15.08864319 27338,6917.806,95.436,540.404,538.938,0.0
53796.0,STARLINK-4721,PAYLOAD,2023-03-06 22:11:42,15.08829505,0.0001242,53.2188,146.3286,126.6308,233.4798,2.1077e-05,4.8e-07,0.0,0 STARLINK-4721,1 53796U 22111Z   23065.92479911  .00000048  00000-0  21077-4 0  9998,2 53796  53.2188 146.3286 0001242 126.6308 233.4798 15.08829505 28126,6917.912,95.438,540.637,538.918,0.0
53796.0,STARLINK-4721,PAYLOAD,2023-03-07 06:08:39,15.0882002,0.0001214,53.2193,144.843,106.8344,253.2782,-0.00014709,-2.627e-05,0.0,0 STARLINK-4721,1 53796U 22111Z   23066.25601560 -.00002627  00000-0 -14709-3 0  9992,2 53796  53.2193 144.8430 0001214 106.8344 253.2782 15.08820020 27423,6917.941,95.439,540.646,538.967,0.0
53796.0,STARLINK-4721,PAYLOAD,2023-03-07 09:19:25,15.08829023,0.0001253,53.2172,144.2487,94.5108,265.6028,-7.9671e-05,-1.555e-05,0.0,0 STARLINK-4721,1 53796U 22111Z   23066.38848904 -.00001555  00000-0 -79671-4 0  9990,2 53796  53.2172 144.2487 0001253  94.5108 265.6028 15.08829023 27444,6917.914,95.438,540.646,538.912,0.0
53796.0,STARLINK-4721,PAYLOAD,2023-03-07 15:40:56,15.08844292,0.0001325,53.219,143.0556,100.5579,259.5562,5.3619e-05,5.66e-06,0.0,0 STARLINK-4721,1 53796U 22111Z   23066.65343646  .00000566  00000-0  53619-4 0  9996,2 53796  53.2190 143.0556 0001325 100.5579 259.5562 15.08844292 27482,6917.867,95.437,540.649,538.816,0.0
53796.0,STARLINK-4721,PAYLOAD,2023-03-07 22:02:29,15.08842621,0.0001694,53.2188,141.8673,89.2146,270.904,-2.2628e-05,-6.48e-06,0.0,0 STARLINK-4721,1 53796U 22111Z   23066.91840127 -.00000648  00000-0 -22628-4 0  9990,2 53796  53.2188 141.8673 0001694  89.2146 270.9040 15.08842621 28277,6917.872,95.437,540.909,538.565,0.0
53796.0,STARLINK-4721,PAYLOAD,2023-03-08 05:59:25,15.08840594,0.0001748,53.2172,140.3816,88.0653,272.0539,-2.8919e-05,-7.48e-06,0.0,0 STARLINK-4721,1 53796U 22111Z   23067.24960264 -.00000748  00000-0 -28919-4 0  9992,2 53796  53.2172 140.3816 0001748  88.0653 272.0539 15.08840594 27578,6917.879,95.438,540.953,538.534,0.0
53796.0,STARLINK-4721,PAYLOAD,2023-03-08 21:53:15,15.08859675,8.18e-05,53.2209,137.4079,111.0159,249.0921,-4.0203e-05,-9.28e-06,0.0,0 STARLINK-4721,1 53796U 22111Z   23067.91198651 -.00000928  00000-0 -40203-4 0  9999,2 53796  53.2209 137.4079 0000818 111.0159 249.0921 15.08859675 28426,6917.82,95.436,540.251,539.119,0.0
53796.0,STARLINK-4721,PAYLOAD,2023-03-09 21:44:04,15.08837392,0.0002202,53.2179,132.9475,81.6126,278.5116,6.8352e-05,8e-06,0.0,0 STARLINK-4721,1 53796U 22111Z   23068.90560658  .00000800  00000-0  68352-4 0  9991,2 53796  53.2179 132.9475 0002202  81.6126 278.5116 15.08837392 28578,6917.888,95.438,541.277,538.23,0.0
53796.0,STARLINK-4721,PAYLOAD,2023-03-10 13:37:54,15.08850141,0.0001279,53.2193,129.9738,92.6068,267.5071,0.00011144,1.487e-05,0.0,0 STARLINK-4721,1 53796U 22111Z   23069.56799542  .00001487  00000-0  11144-3 0  9998,2 53796  53.2193 129.9738 0001279  92.6068 267.5071 15.08850141 27925,6917.849,95.437,540.599,538.83,0.0
53796.0,STARLINK-4721,PAYLOAD,2023-03-10 21:34:52,15.0882907,0.0001645,53.2192,128.4878,79.8643,280.2534,-6.4373e-05,-1.312e-05,0.0,0 STARLINK-4721,1 53796U 22111Z   23069.89921563 -.00001312  00000-0 -64373-4 0  9996,2 53796  53.2192 128.4878 0001645  79.8643 280.2534 15.08829070 28728,6917.914,95.438,540.917,538.641,0.0
53796.0,STARLINK-4721,PAYLOAD,2023-03-11 03:56:24,15.088303,0.000156,53.2192,127.298,83.2709,276.846,-7.8866e-05,-1.543e-05,0.0,0 STARLINK-4721,1 53796U 22111Z   23070.16417711 -.00001543  00000-0 -78866-4 0  9991,2 53796  53.2192 127.2980 0001560  83.2709 276.8460 15.08830300 28016,6917.91,95.438,540.854,538.696,0.0
53796.0,STARLINK-4721,PAYLOAD,2023-03-11 10:17:56,15.08845838,0.0001325,53.2176,126.1091,88.0371,272.0773,-0.00013701,-2.468e-05,0.0,0 STARLINK-4721,1 53796U 22111Z   23070.42912867 -.00002468  00000-0 -13701-3 0  9995,2 53796  53.2176 126.1091 0001325  88.0371 272.0773 15.08845838 28800,6917.863,95.437,540.644,538.811,0.0
53796.0,STARLINK-4721,PAYLOAD,2023-03-12 03:47:11,15.08833641,0.000131,53.2158,122.8367,75.042,285.0717,0.00020092,2.911e-05,0.0,0 STARLINK-4721,1 53796U 22111Z   23071.15777381  .00002911  00000-0  20092-3 0  9998,2 53796  53.2158 122.8367 0001310  75.0420 285.0717 15.08833641 28164,6917.9,95.438,540.671,538.859,0.0
53796.0,STARLINK-4721,PAYLOAD,2023-03-12 08:33:20,15.08837912,0.0001279,53.2162,121.9447,75.8087,284.3048,0.00025846,3.828e-05,0.0,0 STARLINK-4721,1 53796U 22111Z   23071.35649258  .00003828  00000-0  25846-3 0  9991,2 53796  53.2162 121.9447 0001279  75.8087 284.3048 15.08837912 28949,6917.887,95.438,540.637,538.867,0.0
53796.0,STARLINK-4721,PAYLOAD,2023-03-13 11:34:53,15.08854756,0.0001528,53.2183,116.8934,82.8758,277.2408,8.6007e-05,1.082e-05,0.0,0 STARLINK-4721,1 53796U 22111Z   23072.48256265  .00001082  00000-0  86007-4 0  9995,2 53796  53.2183 116.8934 0001528  82.8758 277.2408 15.08854756 28368,6917.835,95.437,540.757,538.643,0.0
